$$SOE
2460154.500000000, A.D. 2023-Jul-29 00:00:00.0000, -3.630735253742511E+08, -2.986568812110690E+08, 2.055844308760725E+07,
2460161.500000000, A.D. 2023-Aug-05 00:00:00.0000, -3.564239712606900E+08, -3.057693752089820E+08, 2.065329994778349E+07,
2460168.500000000, A.D. 2023-Aug-12 00:00:00.0000, -3.496078943166065E+08, -3.127389716111102E+08, 2.073850546674761E+07,
2460175.500000000, A.D. 2023-Aug-19 00:00:00.0000, -3.426279284726711E+08, -3.195619194761531E+08, 2.081398707706536E+07,
2460182.500000000, A.D. 2023-Aug-26 00:00:00.0000, -3.354867849632732E+08, -3.262344954879129E+08, 2.087967521027966E+07,
2460189.500000000, A.D. 2023-Sep-02 00:00:00.0000, -3.281872530953432E+08, -3.327530050885222E+08, 2.093550336071062E+07,
2460196.500000000, A.D. 2023-Sep-09 00:00:00.0000, -3.207322010148750E+08, -3.391137837860745E+08, 2.098140814052123E+07,
2460203.500000000, A.D. 2023-Sep-16 00:00:00.0000, -3.131245763007017E+08, -3.453131986967872E+08, 2.101732930597103E+07,
2460210.500000000, A.D. 2023-Sep-23 00:00:00.0000, -3.053674059669095E+08, -3.513476500369892E+08, 2.104320974021332E+07,
2460217.500000000, A.D. 2023-Sep-30 00:00:00.0000, -2.974637962109509E+08, -3.572135713760093E+08, 2.105899552120622E+07,
2460224.500000000, A.D. 2023-Oct-07 00:00:00.0000, -2.894169342580007E+08, -3.629074291944494E+08, 2.106463624632181E+07,
2460231.500000000, A.D. 2023-Oct-14 00:00:00.0000, -2.812300912584187E+08, -3.684257250636510E+08, 2.106008524757588E+07,
2460238.500000000, A.D. 2023-Oct-21 00:00:00.0000, -2.729066230075687E+08, -3.737649988470424E+08, 2.104529953258136E+07,
2460245.500000000, A.D. 2023-Oct-28 00:00:00.0000, -2.644499699102865E+08, -3.789218306655628E+08, 2.102023976695950E+07,
2460252.500000000, A.D. 2023-Nov-04 00:00:00.0000, -2.558636574370098E+08, -3.838928423988799E+08, 2.098487035020243E+07,
2460259.500000000, A.D. 2023-Nov-11 00:00:00.0000, -2.471512968902015E+08, -3.886746993236054E+08, 2.093915951985639E+07,
2460266.500000000, A.D. 2023-Nov-18 00:00:00.0000, -2.383165862574316E+08, -3.932641119546963E+08, 2.088307945875286E+07,
2460273.500000000, A.D. 2023-Nov-25 00:00:00.0000, -2.293633110742906E+08, -3.976578380699196E+08, 2.081660640059343E+07,
2460280.500000000, A.D. 2023-Dec-02 00:00:00.0000, -2.202953452652190E+08, -4.018526849310963E+08, 2.073972073056629E+07,
2460287.500000000, A.D. 2023-Dec-09 00:00:00.0000, -2.111166518806519E+08, -4.058455117632480E+08, 2.065240706918637E+07,
2460294.500000000, A.D. 2023-Dec-16 00:00:00.0000, -2.018312834388632E+08, -4.096332324810024E+08, 2.055465431406024E+07,
2460301.500000000, A.D. 2023-Dec-23 00:00:00.0000, -1.924433815196781E+08, -4.132128179765127E+08, 2.044645566373783E+07,
2460308.500000000, A.D. 2023-Dec-30 00:00:00.0000, -1.829571769454288E+08, -4.165812969208102E+08, 2.032780883213499E+07,
2460315.500000000, A.D. 2024-Jan-06 00:00:00.0000, -1.733769923158799E+08, -4.197357574402589E+08, 2.019871642280641E+07,
2460322.500000000, A.D. 2024-Jan-13 00:00:00.0000, -1.637072437185346E+08, -4.226733514772863E+08, 2.005918602402073E+07,
2460329.500000000, A.D. 2024-Jan-20 00:00:00.0000, -1.539524403859101E+08, -4.253912987537696E+08, 1.990923016431767E+07,
2460336.500000000, A.D. 2024-Jan-27 00:00:00.0000, -1.441171843239813E+08, -4.278868896865909E+08, 1.974886636780071E+07,
2460343.500000000, A.D. 2024-Feb-03 00:00:00.0000, -1.342061703352819E+08, -4.301574882042221E+08, 1.957811727070618E+07,
2460350.500000000, A.D. 2024-Feb-10 00:00:00.0000, -1.242241861538287E+08, -4.322005347544053E+08, 1.939701074965116E+07,
2460357.500000000, A.D. 2024-Feb-17 00:00:00.0000, -1.141761125465672E+08, -4.340135494929264E+08, 1.920558004895186E+07,
2460364.500000000, A.D. 2024-Feb-24 00:00:00.0000, -1.040669233373793E+08, -4.355941356366236E+08, 1.900386390429267E+07,
2460371.500000000, A.D. 2024-Mar-02 00:00:00.0000, -9.390168531538860E+07, -4.369399830122271E+08, 1.879190665685150E+07,
2460378.500000000, A.D. 2024-Mar-09 00:00:00.0000, -8.368555787995642E+07, -4.380488718644804E+08, 1.856975833966273E+07,
2460385.500000000, A.D. 2024-Mar-16 00:00:00.0000, -7.342379201919761E+07, -4.389186767277037E+08, 1.833747471594432E+07,
2460392.500000000, A.D. 2024-Mar-23 00:00:00.0000, -6.312172871880116E+07, -4.395473692526134E+08, 1.809511736948523E+07,
2460399.500000000, A.D. 2024-Mar-30 00:00:00.0000, -5.278479903571895E+07, -4.399330200139580E+08, 1.784275405032566E+07,
2460406.500000000, A.D. 2024-Apr-06 00:00:00.0000, -4.241852557300362E+07, -4.400738026636448E+08, 1.758045897667181E+07,
2460413.500000000, A.D. 2024-Apr-13 00:00:00.0000, -3.202852179615390E+07, -4.399679995904958E+08, 1.730831283534527E+07,
2460420.500000000, A.D. 2024-Apr-20 00:00:00.0000, -2.162049013483954E+07, -4.396140064076048E+08, 1.702640278664833E+07,
2460427.500000000, A.D. 2024-Apr-27 00:00:00.0000, -1.120022037864652E+07, -4.390103358250275E+08, 1.673482256667125E+07,
2460434.500000000, A.D. 2024-May-04 00:00:00.0000, -7.735882702074127E+05, -4.381556216065163E+08, 1.643367262119180E+07,
2460441.500000000, A.D. 2024-May-11 00:00:00.0000, 9.653445951542566E+06, -4.370486227066326E+08, 1.612306024063635E+07,
2460448.500000000, A.D. 2024-May-18 00:00:00.0000, 2.007483914917233E+07, -4.356882275603421E+08, 1.580309968994904E+07,
2460455.500000000, A.D. 2024-May-25 00:00:00.0000, 3.048446705996521E+07, -4.340734585255428E+08, 1.547391233011547E+07,
2460462.500000000, A.D. 2024-Jun-01 00:00:00.0000, 4.087612631407645E+07, -4.322034765293734E+08, 1.513562672087127E+07,
2460469.500000000, A.D. 2024-Jun-08 00:00:00.0000, 5.124353695316988E+07, -4.300775859345983E+08, 1.478837867997509E+07,
2460476.500000000, A.D. 2024-Jun-15 00:00:00.0000, 6.158034585746724E+07, -4.276952390735673E+08, 1.443231130682120E+07,
2460483.500000000, A.D. 2024-Jun-22 00:00:00.0000, 7.188013008373372E+07, -4.250560392656032E+08, 1.406757515838808E+07,
2460490.500000000, A.D. 2024-Jun-29 00:00:00.0000, 8.213639800015467E+07, -4.221597441270923E+08, 1.369432862281427E+07,
2460497.500000000, A.D. 2024-Jul-06 00:00:00.0000, 9.234259087163948E+07, -4.190062716324059E+08, 1.331273804533941E+07,
2460504.500000000, A.D. 2024-Jul-13 00:00:00.0000, 1.024920868539069E+08, -4.155957060894260E+08, 1.292297765803212E+07,
2460511.500000000, A.D. 2024-Jul-20 00:00:00.0000, 1.125782054192118E+08, -4.119283028688416E+08, 1.252522958881801E+07,
2460518.500000000, A.D. 2024-Jul-27 00:00:00.0000, 1.225942115658285E+08, -4.080044928334910E+08, 1.211968393097323E+07,
2460525.500000000, A.D. 2024-Aug-03 00:00:00.0000, 1.325333200919596E+08, -4.038248868289067E+08, 1.170653881672913E+07,
2460532.500000000, A.D. 2024-Aug-10 00:00:00.0000, 1.423887001067179E+08, -3.993902802251772E+08, 1.128600047864664E+07,
2460539.500000000, A.D. 2024-Aug-17 00:00:00.0000, 1.521534798312658E+08, -3.947016574729555E+08, 1.085828329528150E+07,
2460546.500000000, A.D. 2024-Aug-24 00:00:00.0000, 1.618207517229399E+08, -3.897601966790073E+08, 1.042360981568848E+07,
2460553.500000000, A.D. 2024-Aug-31 00:00:00.0000, 1.713835780426858E+08, -3.845672742451160E+08, 9.982210746058300E+06,
2460560.500000000, A.D. 2024-Sep-07 00:00:00.0000, 1.808349972354020E+08, -3.791244694263347E+08, 9.534324874370158E+06,
2460567.500000000, A.D. 2024-Sep-14 00:00:00.0000, 1.901680312110934E+08, -3.734335677950186E+08, 9.080199005833164E+06,
2460574.500000000, A.D. 2024-Sep-21 00:00:00.0000, 1.993756914986627E+08, -3.674965631790312E+08, 8.620088128038839E+06,
2460581.500000000, A.D. 2024-Sep-28 00:00:00.0000, 2.084509837840323E+08, -3.613156612800872E+08, 8.154255585653365E+06,
2460588.500000000, A.D. 2024-Oct-05 00:00:00.0000, 2.173869145015529E+08, -3.548932849480400E+08, 7.682972927126721E+06,
2460595.500000000, A.D. 2024-Oct-12 00:00:00.0000, 2.261764991165819E+08, -3.482320781100906E+08, 7.206519699308574E+06,
2460602.500000000, A.D. 2024-Oct-19 00:00:00.0000, 2.348127703440231E+08, -3.413349086048414E+08, 6.725183327834934E+06,
2460609.500000000, A.D. 2024-Oct-26 00:00:00.0000, 2.432887862632241E+08, -3.342048706999465E+08, 6.239259020050108E+06,
2460616.500000000, A.D. 2024-Nov-02 00:00:00.0000, 2.515976385772526E+08, -3.268452874169961E+08, 5.749049653886989E+06,
2460623.500000000, A.D. 2024-Nov-09 00:00:00.0000, 2.597324611029117E+08, -3.192597126165791E+08, 5.254865644613221E+06,
2460630.500000000, A.D. 2024-Nov-16 00:00:00.0000, 2.676864385071381E+08, -3.114519328166945E+08, 4.757024786227927E+06,
2460637.500000000, A.D. 2024-Nov-23 00:00:00.0000, 2.754528153262639E+08, -3.034259687691350E+08, 4.255852058463186E+06,
2460644.500000000, A.D. 2024-Nov-30 00:00:00.0000, 2.830249054650553E+08, -2.951860768132586E+08, 3.751679376448244E+06,
2460651.500000000, A.D. 2024-Dec-07 00:00:00.0000, 2.903961025818654E+08, -2.867367495658525E+08, 3.244845278997838E+06,
2460658.500000000, A.D. 2024-Dec-14 00:00:00.0000, 2.975598906548815E+08, -2.780827147047464E+08, 2.735694718986064E+06,
2460665.500000000, A.D. 2024-Dec-21 00:00:00.0000, 3.045098523895029E+08, -2.692289330682007E+08, 2.224579067103326E+06,
2460672.500000000, A.D. 2024-Dec-28 00:00:00.0000, 3.112396774141009E+08, -2.601805990156550E+08, 1.711855905262098E+06,
2460679.500000000, A.D. 2025-Jan-04 00:00:00.0000, 3.177431728360726E+08, -2.509431406515244E+08, 1.197888565464437E+06,
2460686.500000000, A.D. 2025-Jan-11 00:00:00.0000, 3.240142743114582E+08, -2.415222182329644E+08, 6.830457170415819E+05,
2460693.500000000, A.D. 2025-Jan-18 00:00:00.0000, 3.300470566836551E+08, -2.319237216633022E+08, 1.677010116546303E+05,
2460700.500000000, A.D. 2025-Jan-25 00:00:00.0000, 3.358357444050129E+08, -2.221537675300078E+08, -3.477672746075392E+05,
2460707.500000000, A.D. 2025-Feb-01 00:00:00.0000, 3.413747218994048E+08, -2.122186957034145E+08, -8.629766213091761E+05,
2460714.500000000, A.D. 2025-Feb-08 00:00:00.0000, 3.466585438911844E+08, -2.021250654647871E+08, -1.377540668999851E+06,
2460721.500000000, A.D. 2025-Feb-15 00:00:00.0000, 3.516819456945291E+08, -1.918796511744860E+08, -1.891069653339311E+06,
$$EOE